OBJECT_NAME,OBJECT_ID,EPOCH,MEAN_MOTION,ECCENTRICITY,INCLINATION,RA_OF_ASC_NODE,ARG_OF_PERICENTER,MEAN_ANOMALY,EPHEMERIS_TYPE,CLASSIFICATION_TYPE,NORAD_CAT_ID,ELEMENT_SET_NO,REV_AT_EPOCH,BSTAR,MEAN_MOTION_DOT,MEAN_MOTION_DDOT
OSCAR 7 (AO-7),1974-089B,2026-07-05T06:10:33.281760,12.53698414,.00126631,101.9900,199.6921,96.7175,325.8973,0,U,7530,999,36278,-.202032E-6,-.46E-6,0
PHASE 3B (AO-10),1983-058B,2026-07-04T08:44:24.935136,2.05868912,.60050721,25.9269,216.7306,120.3873,311.9427,0,U,14129,999,29584,0,.171E-5,0
UOSAT 2 (UO-11),1984-021B,2026-07-04T08:05:00.065184,14.90828993,.00089092,97.8067,150.7210,121.3323,238.8769,0,U,14781,999,25968,.17048389E-3,.1623E-4,0
LUSAT (LO-19),1990-005G,2026-07-05T01:01:31.635264,14.34128851,.00121078,98.8845,208.3399,149.1725,211.0172,0,U,20442,999,90495,.74139351E-4,.161E-5,0
EYESAT A (AO-27),1993-061C,2026-07-05T04:19:15.787776,14.30947411,.00092412,98.6873,253.5864,53.0213,307.1814,0,U,22825,999,70957,.74236263E-4,.151E-5,0
ITAMSAT (IO-26),1993-061D,2026-07-05T03:41:53.060640,14.31374787,.00095225,98.6820,253.4798,37.5027,322.6818,0,U,22826,999,70988,.75456078E-4,.155E-5,0
RADIO ROSTO (RS15),1994-085A,2026-07-05T05:00:19.206432,11.27583530,.01565519,64.8175,274.0715,0.5463,359.5606,0,U,23439,999,29793,.37499152E-3,-.29E-6,0
JAS-2 (FO-29),1996-046B,2026-07-04T19:59:59.651520,13.53275006,.03507285,98.5226,32.2868,50.7729,312.3996,0,U,24278,999,47555,.11394872E-4,-.22E-6,0
TECHSAT 1B (GO-32),1998-043D,2026-07-05T04:29:22.214688,14.24432045,.00018711,99.0075,179.4002,130.7519,229.3822,0,U,25397,999,45389,.57629485E-4,.87E-6,0
ISS (ZARYA),1998-067A,2026-07-05T02:54:29.072448,15.48901138,.00067403,51.6302,211.3234,257.5366,102.4869,0,U,25544,999,57453,.18660962E-3,.9813E-4,0
PCSAT (NO-44),2001-043C,2026-07-05T00:57:09.875232,14.31962418,.00060054,67.0487,198.0968,265.8306,94.2109,0,U,26931,999,29300,.89765062E-4,.158E-5,0
SAUDISAT 1C (SO-50),2002-058C,2026-07-04T16:29:59.668224,14.83086074,.0074817,64.5520,74.8394,259.1898,100.0781,0,U,27607,999,26705,.18211702E-3,.1404E-4,0
CUTE-1 (CO-55),2003-031E,2026-07-05T00:29:40.228800,14.24347366,.00105291,98.6737,194.3551,129.0136,231.1982,0,U,27844,999,19421,.18868701E-3,.393E-5,0
CUBESAT XI-IV (CO-57),2003-031J,2026-07-04T22:44:44.423232,14.23630898,.00101029,98.6769,193.9817,146.4963,213.6856,0,U,27848,999,19390,.16663671E-3,.336E-5,0
MOZHAETS 4 (RS22),2003-042A,2026-07-05T08:30:17.255232,14.73499680,.00104745,98.3472,11.2262,205.5121,274.3612,0,U,27939,999,21822,.12886714E-3,.784E-5,0
CUBESAT XI-V,2005-043F,2026-07-04T09:20:05.559936,14.72680865,.00147821,98.3005,341.3738,147.1004,213.1126,0,U,28895,999,10428,.28553467E-3,.177E-4,0
CUTE-1.7+APD II (CO-65),2008-021C,2026-07-05T05:06:04.958496,15.09637906,.00078021,97.8292,168.0085,339.8898,20.2022,0,U,32785,999,98791,.51222922E-3,.8182E-4,0
SEEDS II (CO-66),2008-021J,2026-07-04T22:54:45.760320,15.33399456,.00018139,97.7525,184.7084,182.4533,177.6700,0,U,32791,999,99001,.10026985E-2,.32385E-3,0
YUBILEINY (RS30),2008-025A,2026-07-05T06:52:33.975840,12.43180230,.00185101,82.5054,344.1795,272.0565,87.8395,0,U,32953,999,82194,.41758739E-4,.16E-6,0
KKS-1 (KISEKI),2009-002H,2026-07-04T17:31:20.436960,14.83172947,.00066587,98.1181,108.4502,226.6782,133.3877,0,U,33499,999,93879,.24872581E-3,.1975E-4,0
SWISSCUBE,2009-051B,2026-07-04T11:28:26.837760,14.62517748,.00072179,98.4021,93.6669,148.5860,211.5774,0,U,35932,999,89168,.31098137E-3,.1528E-4,0
BEESAT-1,2009-051C,2026-07-04T16:50:44.318976,14.61750705,.00054414,98.3947,93.4931,158.6227,201.5202,0,U,35933,999,89174,.24485179E-3,.1172E-4,0
ITUPSAT1,2009-051E,2026-07-04T16:59:43.323648,14.60469280,.00073167,98.4031,92.6727,174.2685,185.8600,0,U,35935,999,89129,.2547061E-3,.1186E-4,0
XIWANG-1 (HOPE-1),2009-072B,2026-07-05T06:08:10.191264,13.16438328,.00072662,100.4037,139.8001,187.7051,172.3951,0,U,36122,999,79538,-.63099577E-3,-.285E-5,0
O/OREOS (USA 219),2010-062C,2026-07-05T00:13:53.397120,14.93824417,.00133606,71.9706,39.9659,25.4011,334.7814,0,U,37224,999,11930,.32831656E-3,.3431E-4,0
JUGNU,2011-058B,2026-07-05T05:27:39.707424,14.13781436,.00183409,19.9587,198.8255,275.6943,166.0732,0,U,37839,999,76158,.86431771E-4,.433E-5,0
SRMSAT,2011-058D,2026-07-04T16:11:13.217856,14.11579530,.00118514,19.9730,313.6268,36.6009,351.4175,0,U,37841,999,76029,.85792093E-4,.423E-5,0
STRAND-1,2013-009E,2026-07-04T22:46:11.968896,14.37174843,.00087996,98.3930,5.7465,169.9743,190.1621,0,U,39090,999,69961,.149322E-3,.402E-5,0
ZACUBE-1 (TSHEPISOSAT),2013-066B,2026-07-04T22:29:31.370496,15.01294497,.00432367,97.8032,148.3633,188.1764,171.8761,0,U,39417,999,68339,.41369141E-3,.5365E-4,0
GOMX-1,2013-066Q,2026-07-05T07:09:33.774912,14.69521745,.01291312,97.6469,25.6175,19.9587,340.6605,0,U,39430,999,67257,.31143623E-3,.2048E-4,0
